NORAD_CAT_ID,OBJECT_NAME,OBJECT_TYPE,EPOCH,MEAN_MOTION,ECCENTRICITY,INCLINATION,RA_OF_ASC_NODE,ARG_OF_PERICENTER,MEAN_ANOMALY,BSTAR,MEAN_MOTION_DOT,MEAN_MOTION_DDOT,TLE_LINE0,TLE_LINE1,TLE_LINE2,SEMIMAJOR_AXIS,PERIOD,APOGEE,PERIGEE,DECAYED
53610.0,STARLINK-4610,PAYLOAD,2023-04-26 21:45:44,15.08848579,0.0001555,53.2105,257.9234,99.8309,260.2859,0.0009272,0.00014503,0.0,0 STARLINK-4610,1 53610U 22104Y   23116.90675970  .00014503  00000-0  92720-3 0  9996,2 53610  53.2105 257.9234 0001555  99.8309 260.2859 15.08848579 36881,6917.854,95.437,540.795,538.643,0.0
53610.0,STARLINK-4610,PAYLOAD,2023-04-27 08:53:26,15.08835126,2.19e-05,53.2163,255.8433,131.1074,228.9937,0.00037439,5.675e-05,0.0,0 STARLINK-4610,1 53610U 22104Y   23117.37044081  .00005675  00000-0  37439-3 0  9997,2 53610  53.2163 255.8433 0000219 131.1074 228.9937 15.08835126 37522,6917.895,95.438,539.912,539.609,0.0
53610.0,STARLINK-4610,PAYLOAD,2023-04-28 02:22:39,15.08855808,8.1e-05,53.2157,252.5719,83.5314,276.5771,0.00045376,6.944e-05,0.0,0 STARLINK-4610,1 53610U 22104Y   23118.09907195  .00006944  00000-0  45376-3 0  9990,2 53610  53.2157 252.5719 0000810  83.5314 276.5771 15.08855808 37063,6917.832,95.437,540.257,539.137,0.0
53610.0,STARLINK-4610,PAYLOAD,2023-04-28 08:44:12,15.08845195,5.93e-05,53.2138,251.3833,65.5644,294.541,2.7954e-05,1.57e-06,0.0,0 STARLINK-4610,1 53610U 22104Y   23118.36402828  .00000157  00000-0  27954-4 0  9996,2 53610  53.2138 251.3833 0000593  65.5644 294.5410 15.08845195 37675,6917.865,95.437,540.14,539.319,0.0
53610.0,STARLINK-4610,PAYLOAD,2023-04-28 15:05:44,15.0885292,7.7e-05,53.2165,250.1957,341.4786,18.6178,0.00019503,2.819e-05,0.0,0 STARLINK-4610,1 53610U 22104Y   23118.62898782  .00002819  00000-0  19503-3 0  9990,2 53610  53.2165 250.1957 0000770 341.4786  18.6178 15.08852920 37141,6917.841,95.437,540.239,539.173,0.0
53610.0,STARLINK-4610,PAYLOAD,2023-04-29 13:21:08,15.08849359,8.11e-05,53.2151,246.0305,73.3238,286.7843,0.00020737,3.015e-05,0.0,0 STARLINK-4610,1 53610U 22104Y   23119.55634699  .00003015  00000-0  20737-3 0  9998,2 53610  53.2151 246.0305 0000811  73.3238 286.7843 15.08849359 37280,6917.852,95.437,540.278,539.156,0.0
53610.0,STARLINK-4610,PAYLOAD,2023-04-30 13:11:55,15.08834337,7.28e-05,53.2148,241.57,63.0642,297.0424,-4.231e-05,-9.61e-06,0.0,0 STARLINK-4610,1 53610U 22104Y   23120.54995264 -.00000961  00000-0 -42310-4 0  9998,2 53610  53.2148 241.5700 0000728  63.0642 297.0424 15.08834337 37434,6917.898,95.438,540.266,539.259,0.0
53610.0,STARLINK-4610,PAYLOAD,2023-05-01 13:02:42,15.08841893,7.71e-05,53.2171,237.1096,90.9739,269.1341,0.00011811,1.593e-05,0.0,0 STARLINK-4610,1 53610U 22104Y   23121.54355188  .00001593  00000-0  11811-3 0  9995,2 53610  53.2171 237.1096 0000771  90.9739 269.1341 15.08841893 38156,6917.875,95.437,540.273,539.206,0.0
53610.0,STARLINK-4610,PAYLOAD,2023-05-01 19:24:15,15.08851658,7.87e-05,53.217,235.9192,82.0317,278.0765,0.0002545,3.766e-05,0.0,0 STARLINK-4610,1 53610U 22104Y   23121.80850725  .00003766  00000-0  25450-3 0  9999,2 53610  53.2170 235.9192 0000787  82.0317 278.0765 15.08851658 37629,6917.845,95.437,540.254,539.165,0.0
53610.0,STARLINK-4610,PAYLOAD,2023-05-02 12:53:29,15.08850419,8.83e-05,53.2181,232.6507,100.639,259.4701,0.00030532,4.576e-05,0.0,0 STARLINK-4610,1 53610U 22104Y   23122.53714841  .00004576  00000-0  30532-3 0  9995,2 53610  53.2181 232.6507 0000883 100.6390 259.4701 15.08850419 37739,6917.849,95.437,540.324,539.103,0.0
53610.0,STARLINK-4610,PAYLOAD,2023-05-02 16:04:15,15.08853421,8.79e-05,53.2176,232.0554,95.3776,264.7317,0.0003337,5.029e-05,0.0,0 STARLINK-4610,1 53610U 22104Y   23122.66962634  .00005029  00000-0  33370-3 0  9991,2 53610  53.2176 232.0554 0000879  95.3776 264.7317 15.08853421 38326,6917.839,95.437,540.312,539.096,0.0
53610.0,STARLINK-4610,PAYLOAD,2023-05-03 00:01:11,15.08842883,7.02e-05,53.2169,230.5673,97.5017,262.6055,5.548e-05,5.96e-06,0.0,0 STARLINK-4610,1 53610U 22104Y   23123.00082866  .00000596  00000-0  55480-4 0  9991,2 53610  53.2169 230.5673 0000702  97.5017 262.6055 15.08842883 37808,6917.872,95.437,540.222,539.251,0.0
53610.0,STARLINK-4610,PAYLOAD,2023-05-03 12:44:16,15.08837851,6.63e-05,53.2159,228.1891,103.9801,256.1265,-5.0203e-05,-1.086e-05,0.0,0 STARLINK-4610,1 53610U 22104Y   23123.53075123 -.00001086  00000-0 -50203-4 0  9992,2 53610  53.2159 228.1891 0000663 103.9801 256.1265 15.08837851 38453,6917.887,95.438,540.211,539.293,0.0
53610.0,STARLINK-4610,PAYLOAD,2023-05-03 14:19:39,15.08839361,6.9e-05,53.2161,227.8915,102.886,257.2209,-1.123e-05,-4.66e-06,0.0,0 STARLINK-4610,1 53610U 22104Y   23123.59699066 -.00000466  00000-0 -11230-4 0  9994,2 53610  53.2161 227.8915 0000690 102.8860 257.2209 15.08839361 38461,6917.882,95.438,540.225,539.27,0.0
53610.0,STARLINK-4610,PAYLOAD,2023-05-04 12:35:04,15.08843065,0.0001199,53.2159,223.7287,99.1418,260.971,0.00016642,2.362e-05,0.0,0 STARLINK-4610,1 53610U 22104Y   23124.52435280  .00002362  00000-0  16642-3 0  9990,2 53610  53.2159 223.7287 0001199  99.1418 260.9710 15.08843065 38034,6917.871,95.437,540.565,538.907,0.0
53610.0,STARLINK-4610,PAYLOAD,2023-05-04 14:10:27,15.08843159,7.03e-05,53.216,223.4311,80.6438,279.4633,0.00032907,4.954e-05,0.0,0 STARLINK-4610,1 53610U 22104Y   23124.59059306  .00004954  00000-0  32907-3 0  9999,2 53610  53.2160 223.4311 0000703  80.6438 279.4633 15.08843159 38615,6917.871,95.437,540.222,539.249,0.0
53610.0,STARLINK-4610,PAYLOAD,2023-05-05 12:25:51,15.08839447,7.26e-05,53.2159,219.2675,79.697,280.4103,0.0001145,1.535e-05,0.0,0 STARLINK-4610,1 53610U 22104Y   23125.51795521  .00001535  00000-0  11450-3 0  9990,2 53610  53.2159 219.2675 0000726  79.6970 280.4103 15.08839447 38184,6917.882,95.438,540.249,539.245,0.0
53610.0,STARLINK-4610,PAYLOAD,2023-05-05 14:01:14,15.08840791,7.99e-05,53.2159,218.9703,80.1091,279.9991,0.00023548,3.462e-05,0.0,0 STARLINK-4610,1 53610U 22104Y   23125.58419530  .00003462  00000-0  23548-3 0  9992,2 53610  53.2159 218.9703 0000799  80.1091 279.9991 15.08840791 38769,6917.878,95.438,540.296,539.19,0.0
53610.0,STARLINK-4610,PAYLOAD,2023-05-06 15:27:24,15.08855498,9.91e-05,53.2163,214.2121,81.8747,278.2357,0.00029595,4.427e-05,0.0,0 STARLINK-4610,1 53610U 22104Y   23126.64403001  .00004427  00000-0  29595-3 0  9996,2 53610  53.2163 214.2121 0000991  81.8747 278.2357 15.08855498 38923,6917.833,95.437,540.384,539.012,0.0
53610.0,STARLINK-4610,PAYLOAD,2023-05-06 23:24:19,15.0884995,8.41e-05,53.2157,212.7233,86.0821,274.0267,0.00026981,4.01e-05,0.0,0 STARLINK-4610,1 53610U 22104Y   23126.97523100  .00004010  00000-0  26981-3 0  9999,2 53610  53.2157 212.7233 0000841  86.0821 274.0267 15.08849950 38400,6917.85,95.437,540.297,539.133,0.0
53610.0,STARLINK-4610,PAYLOAD,2023-05-07 12:07:24,15.08849977,8.9e-05,53.2154,210.3457,115.9231,244.1853,0.00020597,2.993e-05,0.0,0 STARLINK-4610,1 53610U 22104Y   23127.50514782  .00002993  00000-0  20597-3 0  9990,2 53610  53.2154 210.3457 0000890 115.9231 244.1853 15.08849977 39050,6917.85,95.437,540.331,539.099,0.0
53610.0,STARLINK-4610,PAYLOAD,2023-05-08 11:58:12,15.08842024,8.87e-05,53.2166,205.8843,79.4117,280.6975,-1.7173e-05,-5.61e-06,0.0,0 STARLINK-4610,1 53610U 22104Y   23128.49875455 -.00000561  00000-0 -17173-4 0  9994,2 53610  53.2166 205.8843 0000887  79.4117 280.6975 15.08842024 38633,6917.874,95.437,540.353,539.126,0.0
53610.0,STARLINK-4610,PAYLOAD,2023-05-09 11:48:59,15.08850187,7.81e-05,53.2171,201.4227,95.8595,264.2486,-6.4189e-05,-1.309e-05,0.0,0 STARLINK-4610,1 53610U 22104Y   23129.49235055 -.00001309  00000-0 -64189-4 0  9991,2 53610  53.2171 201.4227 0000781  95.8595 264.2486 15.08850187 39356,6917.849,95.437,540.255,539.174,0.0
53610.0,STARLINK-4610,PAYLOAD,2023-05-10 10:04:23,15.08833548,0.0001173,53.2175,197.2657,116.2105,243.9007,5.6661e-05,6.14e-06,0.0,0 STARLINK-4610,1 53610U 22104Y   23130.41972185  .00000614  00000-0  56661-4 0  9999,2 53610  53.2175 197.2657 0001173 116.2105 243.9007 15.08833548 39490,6917.9,95.438,540.577,538.954,0.0
53610.0,STARLINK-4610,PAYLOAD,2023-05-10 21:12:05,15.08840018,0.0001113,53.2174,195.1851,107.4765,252.6349,9.1586e-05,1.17e-05,0.0,0 STARLINK-4610,1 53610U 22104Y   23130.88339842  .00001170  00000-0  91586-4 0  9990,2 53610  53.2174 195.1851 0001113 107.4765 252.6349 15.08840018 39564,6917.88,95.438,540.515,538.975,0.0
53610.0,STARLINK-4610,PAYLOAD,2023-05-11 09:55:11,15.08836617,0.0001185,53.2177,192.8069,109.6175,250.4945,9.1701e-05,1.172e-05,0.0,0 STARLINK-4610,1 53610U 22104Y   23131.41332183  .00001172  00000-0  91701-4 0  9992,2 53610  53.2177 192.8069 0001185 109.6175 250.4945 15.08836617 39647,6917.891,95.438,540.575,538.936,0.0
53610.0,STARLINK-4610,PAYLOAD,2023-05-11 11:30:33,15.08842821,0.0001121,53.2172,192.5096,108.4689,251.6425,4.1753e-05,3.77e-06,0.0,0 STARLINK-4610,1 53610U 22104Y   23131.47955985  .00000377  00000-0  41753-4 0  9997,2 53610  53.2172 192.5096 0001121 108.4689 251.6425 15.08842821 39084,6917.872,95.437,540.512,538.961,0.0
53610.0,STARLINK-4610,PAYLOAD,2023-05-12 20:53:40,15.08841752,0.0001263,53.2161,186.2609,81.7221,278.3914,7.7457e-05,9.45e-06,0.0,0 STARLINK-4610,1 53610U 22104Y   23132.87060302  .00000945  00000-0  77457-4 0  9993,2 53610  53.2161 186.2609 0001263  81.7221 278.3914 15.08841752 39298,6917.875,95.437,540.614,538.866,0.0
53610.0,STARLINK-4610,PAYLOAD,2023-05-13 11:12:07,15.08848204,0.0001139,53.2163,183.5854,76.2492,283.8627,0.00013031,1.787e-05,0.0,0 STARLINK-4610,1 53610U 22104Y   23133.46675617  .00001787  00000-0  13031-3 0  9992,2 53610  53.2163 183.5854 0001139  76.2492 283.8627 15.08848204 39957,6917.855,95.437,540.508,538.932,0.0
53610.0,STARLINK-4610,PAYLOAD,2023-05-13 20:44:27,15.08840407,0.0001163,53.2161,181.8011,75.2728,284.8393,6.8148e-05,7.97e-06,0.0,0 STARLINK-4610,1 53610U 22104Y   23133.86420204  .00000797  00000-0  68148-4 0  9996,2 53610  53.2161 181.8011 0001163  75.2728 284.8393 15.08840407 40016,6917.879,95.438,540.549,538.94,0.0
